{
  "type": "FeatureCollection",
  "features": [
    {
      "type": "Feature",
      "properties": {
        "norad_id": 50032,
        "name": "COSMOS 1408 DEB",
        "group": "cosmos-1408-debris",
        "lat": -34.656455303298586,
        "lon": 43.20592203701234,
        "alt_km": 445.2437653175766,
        "timestamp": "2025-12-22T14:45:57.672985+00:00",
        "meta_object_name": "COSMOS 1408 DEB",
        "meta_object_id": "1982-092RU",
        "meta_epoch": "2025-12-22T04:02:31.933824",
        "meta_mean_motion": 15.45783536,
        "meta_eccentricity": 0.00162028,
        "meta_inclination": 82.5632,
        "meta_ra_of_asc_node": 48.8449,
        "meta_arg_of_pericenter": 173.5124,
        "meta_mean_anomaly": 186.6338,
        "meta_ephemeris_type": 0,
        "meta_classification_type": "U",
        "meta_norad_cat_id": 50032,
        "meta_element_set_no": 999,
        "meta_rev_at_epoch": 22749,
        "meta_bstar": 0.00010470664,
        "meta_mean_motion_dot": 5.134e-05,
        "meta_mean_motion_ddot": 0,
        "tle_line1": "1 50032U 82092RU  25356.16842516  .00005134  00000+0  10471-3 0  9993",
        "tle_line2": "2 50032  82.5632  48.8449 0016202 173.5124 186.6338 15.45783536227495"
      },
      "geometry": {
        "type": "Point",
        "coordinates": [
          43.20592203701234,
          -34.656455303298586
        ]
      }
    },
    {
      "type": "Feature",
      "properties": {
        "norad_id": 50058,
        "name": "COSMOS 1408 DEB",
        "group": "cosmos-1408-debris",
        "lat": 69.63469908535647,
        "lon": -141.4578662108761,
        "alt_km": 359.59381525676145,
        "timestamp": "2025-12-22T14:45:57.673006+00:00",
        "meta_object_name": "COSMOS 1408 DEB",
        "meta_object_id": "1982-092SW",
        "meta_epoch": "2025-12-22T05:05:37.437504",
        "meta_mean_motion": 15.64648266,
        "meta_eccentricity": 0.00160261,
        "meta_inclination": 82.6121,
        "meta_ra_of_asc_node": 59.4243,
        "meta_arg_of_pericenter": 66.9716,
        "meta_mean_anomaly": 293.3232,
        "meta_ephemeris_type": 0,
        "meta_classification_type": "U",
        "meta_norad_cat_id": 50058,
        "meta_element_set_no": 999,
        "meta_rev_at_epoch": 22952,
        "meta_bstar": 0.00035457608,
        "meta_mean_motion_dot": 0.00034625,
        "meta_mean_motion_ddot": 0,
        "tle_line1": "1 50058U 82092SW  25356.21223886  .00034625  00000+0  35458-3 0  9999",
        "tle_line2": "2 50058  82.6121  59.4243 0016026  66.9716 293.3232 15.64648266229529"
      },
      "geometry": {
        "type": "Point",
        "coordinates": [
          -141.4578662108761,
          69.63469908535647
        ]
      }
    },
    {
      "type": "Feature",
      "properties": {
        "norad_id": 50404,
        "name": "COSMOS 1408 DEB",
        "group": "cosmos-1408-debris",
        "lat": -70.03493457618434,
        "lon": 47.070103496204624,
        "alt_km": 518.5275185835999,
        "timestamp": "2025-12-22T14:45:57.673019+00:00",
        "meta_object_name": "COSMOS 1408 DEB",
        "meta_object_id": "1982-092ADS",
        "meta_epoch": "2025-12-21T15:28:45.909120",
        "meta_mean_motion": 15.15078556,
        "meta_eccentricity": 0.0168442,
        "meta_inclination": 82.2035,
        "meta_ra_of_asc_node": 205.9075,
        "meta_arg_of_pericenter": 168.3631,
        "meta_mean_anomaly": 192.1574,
        "meta_ephemeris_type": 0,
        "meta_classification_type": "U",
        "meta_norad_cat_id": 50404,
        "meta_element_set_no": 999,
        "meta_rev_at_epoch": 21328,
        "meta_bstar": 0.0028703,
        "meta_mean_motion_dot": 0.00077658,
        "meta_mean_motion_ddot": 0,
        "tle_line1": "1 50404U 82092ADS 25355.64497580  .00077658  00000+0  28703-2 0  9991",
        "tle_line2": "2 50404  82.2035 205.9075 0168442 168.3631 192.1574 15.15078556213284"
      },
      "geometry": {
        "type": "Point",
        "coordinates": [
          47.070103496204624,
          -70.03493457618434
        ]
      }
    },
    {
      "type": "Feature",
      "properties": {
        "norad_id": 50621,
        "name": "COSMOS 1408 DEB",
        "group": "cosmos-1408-debris",
        "lat": -39.61931089176681,
        "lon": -109.9005907278562,
        "alt_km": 406.907436374584,
        "timestamp": "2025-12-22T14:45:57.673031+00:00",
        "meta_object_name": "COSMOS 1408 DEB",
        "meta_object_id": "1982-092ALR",
        "meta_epoch": "2025-12-22T04:34:23.413728",
        "meta_mean_motion": 15.57122494,
        "meta_eccentricity": 0.00290745,
        "meta_inclination": 82.5697,
        "meta_ra_of_asc_node": 64.3395,
        "meta_arg_of_pericenter": 118.4206,
        "meta_mean_anomaly": 241.9985,
        "meta_ephemeris_type": 0,
        "meta_classification_type": "U",
        "meta_norad_cat_id": 50621,
        "meta_element_set_no": 999,
        "meta_rev_at_epoch": 22397,
        "meta_bstar": 0.0003920223,
        "meta_mean_motion_dot": 0.00029066,
        "meta_mean_motion_ddot": 0,
        "tle_line1": "1 50621U 82092ALR 25356.19054877  .00029066  00000+0  39202-3 0  9998",
        "tle_line2": "2 50621  82.5697  64.3395 0029074 118.4206 241.9985 15.57122494223978"
      },
      "geometry": {
        "type": "Point",
        "coordinates": [
          -109.9005907278562,
          -39.61931089176681
        ]
      }
    }
  ]
}